[{"OBJECT_NAME":"STARLINK-31138","OBJECT_ID":"2024-012V","EPOCH":"2026-03-09T07:01:41.885760","MEAN_MOTION":15.27617781,"ECCENTRICITY":4.278e-5,"INCLINATION":42.9963,"RA_OF_ASC_NODE":167.6203,"ARG_OF_PERICENTER":78.5636,"MEAN_ANOMALY":281.5264,"EPHEMERIS_TYPE":0,"CLASSIFICATION_TYPE":"U","NORAD_CAT_ID":58806,"ELEMENT_SET_NO":999,"REV_AT_EPOCH":12117,"BSTAR":-0.00027713333,"MEAN_MOTION_DOT":-7.888e-5,"MEAN_MOTION_DDOT":0},{"OBJECT_NAME":"TROLL","OBJECT_ID":"2025-009BB","EPOCH":"2026-03-09T05:24:19.835712","MEAN_MOTION":15.28164315,"ECCENTRICITY":0.00018165,"INCLINATION":97.3932,"RA_OF_ASC_NODE":150.7169,"ARG_OF_PERICENTER":59.185,"MEAN_ANOMALY":300.9568,"EPHEMERIS_TYPE":0,"CLASSIFICATION_TYPE":"U","NORAD_CAT_ID":62658,"ELEMENT_SET_NO":999,"REV_AT_EPOCH":11817,"BSTAR":0.00048220305,"MEAN_MOTION_DOT":0.00013174,"MEAN_MOTION_DDOT":0}]
